{"features":[{"geometry":{"coordinates":[139.7494616,35.6869628],"type":"Point"},"properties":{"classification":"DATA","layer":"modern_city","name":"東京","name_en":"Tokyo","source":"Natural Earth 1:10m Populated Places 5.1.2"},"type":"Feature"},{"geometry":{"coordinates":[136.9130456,35.1569434],"type":"Point"},"properties":{"classification":"DATA","layer":"modern_city","name":"名古屋","name_en":"Nagoya","source":"Natural Earth 1:10m Populated Places 5.1.2"},"type":"Feature"},{"geometry":{"coordinates":[135.50375419006232,34.691095244477914],"type":"Point"},"properties":{"classification":"DATA","layer":"modern_city","name":"大阪","name_en":"Osaka","source":"Natural Earth 1:10m Populated Places 5.1.2"},"type":"Feature"},{"geometry":{"coordinates":[130.4080679,33.5969611],"type":"Point"},"properties":{"classification":"DATA","layer":"modern_city","name":"福岡","name_en":"Fukuoka","source":"Natural Earth 1:10m Populated Places 5.1.2"},"type":"Feature"},{"geometry":{"coordinates":[141.3380985,43.0769251],"type":"Point"},"properties":{"classification":"DATA","layer":"modern_city","name":"札幌","name_en":"Sapporo","source":"Natural Earth 1:10m Populated Places 5.1.2"},"type":"Feature"},{"geometry":{"coordinates":[140.86966685536837,38.2684409197744],"type":"Point"},"properties":{"classification":"DATA","layer":"modern_city","name":"仙台","name_en":"Sendai","source":"Natural Earth 1:10m Populated Places 5.1.2"},"type":"Feature"},{"geometry":{"coordinates":[132.4409671,34.389781],"type":"Point"},"properties":{"classification":"DATA","layer":"modern_city","name":"広島","name_en":"Hiroshima","source":"Natural Earth 1:10m Populated Places 5.1.2"},"type":"Feature"},{"geometry":{"coordinates":[127.6729716,26.2071717],"type":"Point"},"properties":{"classification":"DATA","layer":"modern_city","name":"那覇","name_en":"Naha","source":"Natural Earth 1:10m Populated Places 5.1.2"},"type":"Feature"}],"metadata":{"bbox":[120.0,20.0,150.0,50.0],"classification":"DATA","license":"Public domain","provider":"Natural Earth","terms":"https://www.naturalearthdata.com/about/terms-of-use/"},"type":"FeatureCollection"}